{
  "type": "FeatureCollection",
  "features": [
    {
      "type": "Feature",
      "properties": {
        "norad_id": 36585,
        "name": "GPS BIIF-1  (PRN 25)",
        "group": "gnss",
        "lat": -1.7181589162252815,
        "lon": 36.73718186094581,
        "alt_km": 20332.127853908583,
        "timestamp": "2025-12-27T04:40:45.747907+00:00",
        "meta_object_name": "GPS BIIF-1  (PRN 25)",
        "meta_object_id": "2010-022A",
        "meta_epoch": "2025-12-26T01:43:04.882656",
        "meta_mean_motion": 2.00553834,
        "meta_eccentricity": 0.01266071,
        "meta_inclination": 54.2982,
        "meta_ra_of_asc_node": 215.5361,
        "meta_arg_of_pericenter": 65.2423,
        "meta_mean_anomaly": 24.4831,
        "meta_ephemeris_type": 0,
        "meta_classification_type": "U",
        "meta_norad_cat_id": 36585,
        "meta_element_set_no": 999,
        "meta_rev_at_epoch": 11412,
        "meta_bstar": 0,
        "meta_mean_motion_dot": 8.1e-07,
        "meta_mean_motion_ddot": 0,
        "tle_line1": "1 36585U 10022A   25360.07158429  .00000081  00000+0  00000+0 0  9991",
        "tle_line2": "2 36585  54.2982 215.5361 0126607  65.2423  24.4831  2.00553834114127"
      },
      "geometry": {
        "type": "Point",
        "coordinates": [
          36.73718186094581,
          -1.7181589162252815
        ]
      }
    },
    {
      "type": "Feature",
      "properties": {
        "norad_id": 36828,
        "name": "BEIDOU-2 IGSO-1 (C06)",
        "group": "gnss",
        "lat": 50.113080574910974,
        "lon": -74.9680236415424,
        "alt_km": 35842.22927425448,
        "timestamp": "2025-12-27T04:40:45.747919+00:00",
        "meta_object_name": "BEIDOU-2 IGSO-1 (C06)",
        "meta_object_id": "2010-036A",
        "meta_epoch": "2025-12-25T21:06:51.904224",
        "meta_mean_motion": 1.00272533,
        "meta_eccentricity": 0.00515074,
        "meta_inclination": 54.2892,
        "meta_ra_of_asc_node": 164.5291,
        "meta_arg_of_pericenter": 215.7944,
        "meta_mean_anomaly": 138.9488,
        "meta_ephemeris_type": 0,
        "meta_classification_type": "U",
        "meta_norad_cat_id": 36828,
        "meta_element_set_no": 999,
        "meta_rev_at_epoch": 5635,
        "meta_bstar": 0,
        "meta_mean_motion_dot": -5.2e-07,
        "meta_mean_motion_ddot": 0,
        "tle_line1": "1 36828U 10036A   25359.87976741 -.00000052  00000+0  00000+0 0  9996",
        "tle_line2": "2 36828  54.2892 164.5291 0051507 215.7944 138.9488  1.00272533 56350"
      },
      "geometry": {
        "type": "Point",
        "coordinates": [
          -74.9680236415424,
          50.113080574910974
        ]
      }
    },
    {
      "type": "Feature",
      "properties": {
        "norad_id": 37210,
        "name": "BEIDOU-2 G4 (C04)",
        "group": "gnss",
        "lat": -3.1415331730158638,
        "lon": -33.718708921680225,
        "alt_km": 35765.853881960895,
        "timestamp": "2025-12-27T04:40:45.747932+00:00",
        "meta_object_name": "BEIDOU-2 G4 (C04)",
        "meta_object_id": "2010-057A",
        "meta_epoch": "2025-12-26T19:05:50.023968",
        "meta_mean_motion": 1.00271236,
        "meta_eccentricity": 0.00105009,
        "meta_inclination": 3.2171,
        "meta_ra_of_asc_node": 69.8846,
        "meta_arg_of_pericenter": 194.1818,
        "meta_mean_anomaly": 278.0084,
        "meta_ephemeris_type": 0,
        "meta_classification_type": "U",
        "meta_norad_cat_id": 37210,
        "meta_element_set_no": 999,
        "meta_rev_at_epoch": 5556,
        "meta_bstar": 0,
        "meta_mean_motion_dot": -9.1e-07,
        "meta_mean_motion_ddot": 0,
        "tle_line1": "1 37210U 10057A   25360.79571787 -.00000091  00000+0  00000+0 0  9992",
        "tle_line2": "2 37210   3.2171  69.8846 0010500 194.1818 278.0084  1.00271236 55560"
      },
      "geometry": {
        "type": "Point",
        "coordinates": [
          -33.718708921680225,
          -3.1415331730158638
        ]
      }
    },
    {
      "type": "Feature",
      "properties": {
        "norad_id": 37256,
        "name": "BEIDOU-2 IGSO-2 (C07)",
        "group": "gnss",
        "lat": 0.3945247156448945,
        "lon": -85.67243593258787,
        "alt_km": 35949.75886752619,
        "timestamp": "2025-12-27T04:40:45.747944+00:00",
        "meta_object_name": "BEIDOU-2 IGSO-2 (C07)",
        "meta_object_id": "2010-068A",
        "meta_epoch": "2025-12-26T15:56:02.027040",
        "meta_mean_motion": 1.00281973,
        "meta_eccentricity": 0.0048288,
        "meta_inclination": 47.8603,
        "meta_ra_of_asc_node": 273.9787,
        "meta_arg_of_pericenter": 215.9223,
        "meta_mean_anomaly": 312.6243,
        "meta_ephemeris_type": 0,
        "meta_classification_type": "U",
        "meta_norad_cat_id": 37256,
        "meta_element_set_no": 999,
        "meta_rev_at_epoch": 5506,
        "meta_bstar": 0,
        "meta_mean_motion_dot": -2.02e-06,
        "meta_mean_motion_ddot": 0,
        "tle_line1": "1 37256U 10068A   25360.66391235 -.00000202  00000+0  00000+0 0  9992",
        "tle_line2": "2 37256  47.8603 273.9787 0048288 215.9223 312.6243  1.00281973 55068"
      },
      "geometry": {
        "type": "Point",
        "coordinates": [
          -85.67243593258787,
          0.3945247156448945
        ]
      }
    },
    {
      "type": "Feature",
      "properties": {
        "norad_id": 37384,
        "name": "BEIDOU-2 IGSO-3 (C08)",
        "group": "gnss",
        "lat": -43.96727077477988,
        "lon": -107.56416109596488,
        "alt_km": 35685.88482918451,
        "timestamp": "2025-12-27T04:40:45.747956+00:00",
        "meta_object_name": "BEIDOU-2 IGSO-3 (C08)",
        "meta_object_id": "2011-013A",
        "meta_epoch": "2025-12-26T18:04:14.277792",
        "meta_mean_motion": 1.00267391,
        "meta_eccentricity": 0.00351191,
        "meta_inclination": 62.1613,
        "meta_ra_of_asc_node": 41.7837,
        "meta_arg_of_pericenter": 187.8187,
        "meta_mean_anomaly": 244.1436,
        "meta_ephemeris_type": 0,
        "meta_classification_type": "U",
        "meta_norad_cat_id": 37384,
        "meta_element_set_no": 999,
        "meta_rev_at_epoch": 5393,
        "meta_bstar": 0,
        "meta_mean_motion_dot": -1.71e-06,
        "meta_mean_motion_ddot": 0,
        "tle_line1": "1 37384U 11013A   25360.75294303 -.00000171  00000+0  00000+0 0  9998",
        "tle_line2": "2 37384  62.1613  41.7837 0035119 187.8187 244.1436  1.00267391 53938"
      },
      "geometry": {
        "type": "Point",
        "coordinates": [
          -107.56416109596488,
          -43.96727077477988
        ]
      }
    },
    {
      "type": "Feature",
      "properties": {
        "norad_id": 37605,
        "name": "GSAT-8 (GAGAN/PRN 127)",
        "group": "gnss",
        "lat": 1.1386194431737944,
        "lon": -138.88415506390268,
        "alt_km": 35761.059328887044,
        "timestamp": "2025-12-27T04:40:45.747973+00:00",
        "meta_object_name": "GSAT-8 (GAGAN/PRN 127)",
        "meta_object_id": "2011-022A",
        "meta_epoch": "2025-12-26T18:02:21.638976",
        "meta_mean_motion": 1.00271884,
        "meta_eccentricity": 0.00090772,
        "meta_inclination": 1.684,
        "meta_ra_of_asc_node": 84.0441,
        "meta_arg_of_pericenter": 186.8464,
        "meta_mean_anomaly": 150.2602,
        "meta_ephemeris_type": 0,
        "meta_classification_type": "U",
        "meta_norad_cat_id": 37605,
        "meta_element_set_no": 999,
        "meta_rev_at_epoch": 5148,
        "meta_bstar": 0,
        "meta_mean_motion_dot": 1.06e-06,
        "meta_mean_motion_ddot": 0,
        "tle_line1": "1 37605U 11022A   25360.75163934  .00000106  00000+0  00000+0 0  9996",
        "tle_line2": "2 37605   1.6840  84.0441 0009077 186.8464 150.2602  1.00271884 51488"
      },
      "geometry": {
        "type": "Point",
        "coordinates": [
          -138.88415506390268,
          1.1386194431737944
        ]
      }
    },
    {
      "type": "Feature",
      "properties": {
        "norad_id": 37763,
        "name": "BEIDOU-2 IGSO-4 (C09)",
        "group": "gnss",
        "lat": 54.46515069261719,
        "lon": -98.41310939182763,
        "alt_km": 36238.54233381389,
        "timestamp": "2025-12-27T04:40:45.747986+00:00",
        "meta_object_name": "BEIDOU-2 IGSO-4 (C09)",
        "meta_object_id": "2011-038A",
        "meta_epoch": "2025-12-21T10:06:26.864064",
        "meta_mean_motion": 1.00280083,
        "meta_eccentricity": 0.01491557,
        "meta_inclination": 54.5854,
        "meta_ra_of_asc_node": 167.2693,
        "meta_arg_of_pericenter": 230.0944,
        "meta_mean_anomaly": 299.1265,
        "meta_ephemeris_type": 0,
        "meta_classification_type": "U",
        "meta_norad_cat_id": 37763,
        "meta_element_set_no": 999,
        "meta_rev_at_epoch": 5286,
        "meta_bstar": 0,
        "meta_mean_motion_dot": 5.9e-07,
        "meta_mean_motion_ddot": 0,
        "tle_line1": "1 37763U 11038A   25355.42114426  .00000059  00000+0  00000+0 0  9995",
        "tle_line2": "2 37763  54.5854 167.2693 0149155 230.0944 299.1265  1.00280083 52867"
      },
      "geometry": {
        "type": "Point",
        "coordinates": [
          -98.41310939182763,
          54.46515069261719
        ]
      }
    }
  ]
}